COMMENT,ORIGINATOR,NORAD_CAT_ID,OBJECT_NAME,OBJECT_TYPE,CLASSIFICATION_TYPE,INTLDES,EPOCH,EPOCH_MICROSECONDS,MEAN_MOTION,ECCENTRICITY,INCLINATION,RA_OF_ASC_NODE,ARG_OF_PERICENTER,MEAN_ANOMALY,EPHEMERIS_TYPE,ELEMENT_SET_NO,REV_AT_EPOCH,BSTAR,MEAN_MOTION_DOT,MEAN_MOTION_DDOT,FILE,TLE_LINE0,TLE_LINE1,TLE_LINE2,OBJECT_ID,OBJECT_NUMBER,SEMIMAJOR_AXIS,PERIOD,APOGEE,PERIGEE,DECAYED,date
GENERATED VIA SPACETRACK.ORG API,18 SPCS,48896,SPACEBEE-105,PAYLOAD,U,21059T,2023/4/27 7:45,61952,15.28983262,0.000681,97.5879,253.0626,91.4888,268.7132,0,999,10161,0.001154,0.00032532,0,3894751,0 SPACEBEE-105,1 48896U 21059T   23117.32296368  .00032532  00000-0  11540-2 0  9993,2 48896  97.5879 253.0626 0006810  91.4888 268.7132 15.28983262101613,2021-059T,48896,6856.987,94.18,483.522,474.183,0,
GENERATED VIA SPACETRACK.ORG API,18 SPCS,48896,SPACEBEE-105,PAYLOAD,U,21059T,2023/4/27 7:45,61952,15.28983262,0.000681,97.5879,253.0626,91.4888,268.7132,0,999,10161,0.001154,0.00032532,0,3894814,0 SPACEBEE-105,1 48896U 21059T   23117.32296368  .00032532  00000-0  11540-2 0  9993,2 48896  97.5879 253.0626 0006810  91.4888 268.7132 15.28983262101613,2021-059T,48896,6856.987,94.18,483.522,474.183,0,
GENERATED VIA SPACETRACK.ORG API,18 SPCS,48896,SPACEBEE-105,PAYLOAD,U,21059T,2023/4/28 8:52,789152,15.29056751,0.000678,97.5881,254.1307,87.6977,272.5039,0,999,10177,0.0011345,0.00032051,0,3895522,0 SPACEBEE-105,1 48896U 21059T   23118.37005543  .00032051  00000-0  11345-2 0  9991,2 48896  97.5881 254.1307 0006780  87.6977 272.5039 15.29056751101777,2021-059T,48896,6856.768,94.176,483.282,473.984,0,
GENERATED VIA SPACETRACK.ORG API,18 SPCS,48896,SPACEBEE-105,PAYLOAD,U,21059T,2023/4/28 8:52,789152,15.29056751,0.000678,97.5881,254.1307,87.6977,272.5039,0,999,10177,0.0011345,0.00032051,0,3895770,0 SPACEBEE-105,1 48896U 21059T   23118.37005543  .00032051  00000-0  11345-2 0  9991,2 48896  97.5881 254.1307 0006780  87.6977 272.5039 15.29056751101777,2021-059T,48896,6856.768,94.176,483.282,473.984,0,
GENERATED VIA SPACETRACK.ORG API,18 SPCS,48896,SPACEBEE-105,PAYLOAD,U,21059T,2023/4/29 8:26,392032,15.29122251,0.0006718,97.5879,255.1319,84.1369,276.0636,0,999,10192,0.0011245,0.0003183,0,3896517,0 SPACEBEE-105,1 48896U 21059T   23119.35165963  .00031830  00000-0  11245-2 0  9996,2 48896  97.5879 255.1319 0006718  84.1369 276.0636 15.29122251101924,2021-059T,48896,6856.572,94.172,483.043,473.831,0,
GENERATED VIA SPACETRACK.ORG API,18 SPCS,48896,SPACEBEE-105,PAYLOAD,U,21059T,2023/4/29 19:26,385152,15.29156755,0.0006678,97.5878,255.5991,82.578,277.6218,0,999,10199,0.001231,0.00034903,0,3896612,0 SPACEBEE-105,1 48896U 21059T   23119.80972668  .00034903  00000-0  12310-2 0  9992,2 48896  97.5878 255.5991 0006678  82.5780 277.6218 15.29156755101993,2021-059T,48896,6856.469,94.17,482.913,473.755,0,
GENERATED VIA SPACETRACK.ORG API,18 SPCS,48896,SPACEBEE-105,PAYLOAD,U,21059T,2023/4/30 7:59,252928,15.29189908,0.0006567,97.5881,256.1329,80.4841,279.714,0,999,10207,0.0011246,0.00031898,0,3897442,0 SPACEBEE-105,1 48896U 21059T   23120.33322052  .00031898  00000-0  11246-2 0  9995,2 48896  97.5881 256.1329 0006567  80.4841 279.7140 15.29189908102074,2021-059T,48896,6856.37,94.168,482.737,473.732,0,
GENERATED VIA SPACETRACK.ORG API,18 SPCS,48896,SPACEBEE-105,PAYLOAD,U,21059T,2023/4/30 20:33,115008,15.2922319,0.000655,97.5881,256.6669,78.8727,281.3248,0,999,10215,0.0010493,0.00029779,0,3897560,0 SPACEBEE-105,1 48896U 21059T   23120.85670272  .00029779  00000-0  10493-2 0  9990,2 48896  97.5881 256.6669 0006550  78.8727 281.3248 15.29223190102151,2021-059T,48896,6856.27,94.165,482.626,473.644,0,
